{
  "type": "FeatureCollection",
  "features": [
    {
      "type": "Feature",
      "properties": {
        "norad_id": 40069,
        "name": "METEOR-M 2",
        "group": "weather",
        "lat": 77.99821299101251,
        "lon": -66.42687024508481,
        "alt_km": 812.8781695951866,
        "timestamp": "2025-12-27T04:40:45.142549+00:00",
        "meta_object_name": "METEOR-M 2",
        "meta_object_id": "2014-037A",
        "meta_epoch": "2025-12-26T23:13:43.242240",
        "meta_mean_motion": 14.21391646,
        "meta_eccentricity": 0.00057367,
        "meta_inclination": 98.4924,
        "meta_ra_of_asc_node": 338.0079,
        "meta_arg_of_pericenter": 165.8734,
        "meta_mean_anomaly": 194.2605,
        "meta_ephemeris_type": 0,
        "meta_classification_type": "U",
        "meta_norad_cat_id": 40069,
        "meta_element_set_no": 999,
        "meta_rev_at_epoch": 59485,
        "meta_bstar": 2.0690964e-05,
        "meta_mean_motion_dot": 3e-08,
        "meta_mean_motion_ddot": 0,
        "tle_line1": "1 40069U 14037A   25360.96786160  .00000003  00000+0  20691-4 0  9997",
        "tle_line2": "2 40069  98.4924 338.0079 0005736 165.8734 194.2605 14.21391646594857"
      },
      "geometry": {
        "type": "Point",
        "coordinates": [
          -66.42687024508481,
          77.99821299101251
        ]
      }
    },
    {
      "type": "Feature",
      "properties": {
        "norad_id": 40267,
        "name": "HIMAWARI-8",
        "group": "weather",
        "lat": 0.02288864787565649,
        "lon": -53.2277481752232,
        "alt_km": 35782.228783758284,
        "timestamp": "2025-12-27T04:40:45.142561+00:00",
        "meta_object_name": "HIMAWARI-8",
        "meta_object_id": "2014-060A",
        "meta_epoch": "2025-12-26T08:33:59.245344",
        "meta_mean_motion": 1.0027063,
        "meta_eccentricity": 0.000101,
        "meta_inclination": 0.0427,
        "meta_ra_of_asc_node": 196.506,
        "meta_arg_of_pericenter": 108.6661,
        "meta_mean_anomaly": 59.0936,
        "meta_ephemeris_type": 0,
        "meta_classification_type": "U",
        "meta_norad_cat_id": 40267,
        "meta_element_set_no": 999,
        "meta_rev_at_epoch": 4102,
        "meta_bstar": 0,
        "meta_mean_motion_dot": -2.54e-06,
        "meta_mean_motion_ddot": 0,
        "tle_line1": "1 40267U 14060A   25360.35693571 -.00000254  00000+0  00000+0 0  9995",
        "tle_line2": "2 40267   0.0427 196.5060 0001010 108.6661  59.0936  1.00270630 41029"
      },
      "geometry": {
        "type": "Point",
        "coordinates": [
          -53.2277481752232,
          0.02288864787565649
        ]
      }
    },
    {
      "type": "Feature",
      "properties": {
        "norad_id": 40367,
        "name": "FENGYUN 2G",
        "group": "weather",
        "lat": -0.963745597298362,
        "lon": -94.61228820170635,
        "alt_km": 35776.46323877106,
        "timestamp": "2025-12-27T04:40:45.142574+00:00",
        "meta_object_name": "FENGYUN 2G",
        "meta_object_id": "2014-090A",
        "meta_epoch": "2025-12-26T20:25:12.847296",
        "meta_mean_motion": 1.00281295,
        "meta_eccentricity": 0.00017926,
        "meta_inclination": 5.2009,
        "meta_ra_of_asc_node": 74.9231,
        "meta_arg_of_pericenter": 170.6742,
        "meta_mean_anomaly": 255.5929,
        "meta_ephemeris_type": 0,
        "meta_classification_type": "U",
        "meta_norad_cat_id": 40367,
        "meta_element_set_no": 999,
        "meta_rev_at_epoch": 4027,
        "meta_bstar": 0,
        "meta_mean_motion_dot": -2.81e-06,
        "meta_mean_motion_ddot": 0,
        "tle_line1": "1 40367U 14090A   25360.85084314 -.00000281  00000+0  00000+0 0  9993",
        "tle_line2": "2 40367   5.2009  74.9231 0001792 170.6742 255.5929  1.00281295 40278"
      },
      "geometry": {
        "type": "Point",
        "coordinates": [
          -94.61228820170635,
          -0.963745597298362
        ]
      }
    },
    {
      "type": "Feature",
      "properties": {
        "norad_id": 40732,
        "name": "METEOSAT-11 (MSG-4)",
        "group": "weather",
        "lat": 2.703494032709418,
        "lon": 175.30726824640325,
        "alt_km": 35783.223342134384,
        "timestamp": "2025-12-27T04:40:45.142586+00:00",
        "meta_object_name": "METEOSAT-11 (MSG-4)",
        "meta_object_id": "2015-034A",
        "meta_epoch": "2025-12-25T16:31:52.264704",
        "meta_mean_motion": 1.00271545,
        "meta_eccentricity": 6.999e-05,
        "meta_inclination": 2.7688,
        "meta_ra_of_asc_node": 71.966,
        "meta_arg_of_pericenter": 136.703,
        "meta_mean_anomaly": 142.9271,
        "meta_ephemeris_type": 0,
        "meta_classification_type": "U",
        "meta_norad_cat_id": 40732,
        "meta_element_set_no": 999,
        "meta_rev_at_epoch": 547,
        "meta_bstar": 0,
        "meta_mean_motion_dot": 8.2e-07,
        "meta_mean_motion_ddot": 0,
        "tle_line1": "1 40732U 15034A   25359.68879936  .00000082  00000+0  00000+0 0  9997",
        "tle_line2": "2 40732   2.7688  71.9660 0000699 136.7030 142.9271  1.00271545  5479"
      },
      "geometry": {
        "type": "Point",
        "coordinates": [
          175.30726824640325,
          2.703494032709418
        ]
      }
    },
    {
      "type": "Feature",
      "properties": {
        "norad_id": 41105,
        "name": "ELEKTRO-L 2",
        "group": "weather",
        "lat": 6.1571270812541234,
        "lon": 151.5466819438479,
        "alt_km": 35794.949380612336,
        "timestamp": "2025-12-27T04:40:45.142598+00:00",
        "meta_object_name": "ELEKTRO-L 2",
        "meta_object_id": "2015-074A",
        "meta_epoch": "2025-12-26T23:14:16.416384",
        "meta_mean_motion": 1.00271692,
        "meta_eccentricity": 0.00036716,
        "meta_inclination": 6.2592,
        "meta_ra_of_asc_node": 72.6587,
        "meta_arg_of_pericenter": 207.2982,
        "meta_mean_anomaly": 149.8476,
        "meta_ephemeris_type": 0,
        "meta_classification_type": "U",
        "meta_norad_cat_id": 41105,
        "meta_element_set_no": 999,
        "meta_rev_at_epoch": 3677,
        "meta_bstar": 0,
        "meta_mean_motion_dot": -9.7e-07,
        "meta_mean_motion_ddot": 0,
        "tle_line1": "1 41105U 15074A   25360.96824556 -.00000097  00000+0  00000+0 0  9994",
        "tle_line2": "2 41105   6.2592  72.6587 0003671 207.2982 149.8476  1.00271692 36779"
      },
      "geometry": {
        "type": "Point",
        "coordinates": [
          151.5466819438479,
          6.1571270812541234
        ]
      }
    },
    {
      "type": "Feature",
      "properties": {
        "norad_id": 41752,
        "name": "INSAT-3DR",
        "group": "weather",
        "lat": 0.004084624550264588,
        "lon": -119.98791606164995,
        "alt_km": 35734.61789606906,
        "timestamp": "2025-12-27T04:40:45.142610+00:00",
        "meta_object_name": "INSAT-3DR",
        "meta_object_id": "2016-054A",
        "meta_epoch": "2025-12-26T03:06:52.542720",
        "meta_mean_motion": 1.00271485,
        "meta_eccentricity": 0.0014374,
        "meta_inclination": 0.0398,
        "meta_ra_of_asc_node": 84.8108,
        "meta_arg_of_pericenter": 187.3091,
        "meta_mean_anomaly": 303.4691,
        "meta_ephemeris_type": 0,
        "meta_classification_type": "U",
        "meta_norad_cat_id": 41752,
        "meta_element_set_no": 999,
        "meta_rev_at_epoch": 3408,
        "meta_bstar": 0,
        "meta_mean_motion_dot": -5.5e-07,
        "meta_mean_motion_ddot": 0,
        "tle_line1": "1 41752U 16054A   25360.12977480 -.00000055  00000+0  00000+0 0  9998",
        "tle_line2": "2 41752   0.0398  84.8108 0014374 187.3091 303.4691  1.00271485 34087"
      },
      "geometry": {
        "type": "Point",
        "coordinates": [
          -119.98791606164995,
          0.004084624550264588
        ]
      }
    },
    {
      "type": "Feature",
      "properties": {
        "norad_id": 41836,
        "name": "HIMAWARI-9",
        "group": "weather",
        "lat": -0.02077782796249386,
        "lon": -53.10643965587172,
        "alt_km": 35781.641640914684,
        "timestamp": "2025-12-27T04:40:45.142622+00:00",
        "meta_object_name": "HIMAWARI-9",
        "meta_object_id": "2016-064A",
        "meta_epoch": "2025-12-26T00:44:38.656608",
        "meta_mean_motion": 1.00271993,
        "meta_eccentricity": 0.00010793,
        "meta_inclination": 0.0124,
        "meta_ra_of_asc_node": 80.1849,
        "meta_arg_of_pericenter": 234.8379,
        "meta_mean_anomaly": 291.7052,
        "meta_ephemeris_type": 0,
        "meta_classification_type": "U",
        "meta_norad_cat_id": 41836,
        "meta_element_set_no": 999,
        "meta_rev_at_epoch": 3347,
        "meta_bstar": 0,
        "meta_mean_motion_dot": -2.53e-06,
        "meta_mean_motion_ddot": 0,
        "tle_line1": "1 41836U 16064A   25360.03100297 -.00000253  00000+0  00000+0 0  9996",
        "tle_line2": "2 41836   0.0124  80.1849 0001079 234.8379 291.7052  1.00271993 33479"
      },
      "geometry": {
        "type": "Point",
        "coordinates": [
          -53.10643965587172,
          -0.02077782796249386
        ]
      }
    }
  ]
}